[{"OBJECT_NAME":"RADFXSAT (FOX-1B)","OBJECT_ID":"2017-073E","EPOCH":"2026-03-09T14:17:03.914016","MEAN_MOTION":15.10873817,"ECCENTRICITY":0.0154575,"INCLINATION":97.4852,"RA_OF_ASC_NODE":297.8938,"ARG_OF_PERICENTER":312.4525,"MEAN_ANOMALY":46.3719,"EPHEMERIS_TYPE":0,"CLASSIFICATION_TYPE":"U","NORAD_CAT_ID":43017,"ELEMENT_SET_NO":999,"REV_AT_EPOCH":45034,"BSTAR":0.00051457,"MEAN_MOTION_DOT":0.00011352,"MEAN_MOTION_DDOT":0},{"OBJECT_NAME":"STARLINK-33719","OBJECT_ID":"2025-076K","EPOCH":"2026-03-09T23:12:24.835104","MEAN_MOTION":15.2760131,"ECCENTRICITY":0.00012851,"INCLINATION":43.0018,"RA_OF_ASC_NODE":320.0605,"ARG_OF_PERICENTER":258.3619,"MEAN_ANOMALY":101.7089,"EPHEMERIS_TYPE":0,"CLASSIFICATION_TYPE":"U","NORAD_CAT_ID":63578,"ELEMENT_SET_NO":999,"REV_AT_EPOCH":5187,"BSTAR":0.0011620972,"MEAN_MOTION_DOT":0.00031875,"MEAN_MOTION_DDOT":0}]
